[{"OBJECT_NAME":"TRANSPORTER-12 OBJECT BT","OBJECT_ID":"2025-009BT","EPOCH":"2026-03-09T17:08:24.281088","MEAN_MOTION":15.27872239,"ECCENTRICITY":0.00036816,"INCLINATION":97.4094,"RA_OF_ASC_NODE":151.5992,"ARG_OF_PERICENTER":313.5044,"MEAN_ANOMALY":46.5889,"EPHEMERIS_TYPE":0,"CLASSIFICATION_TYPE":"U","NORAD_CAT_ID":62674,"ELEMENT_SET_NO":999,"REV_AT_EPOCH":12136,"BSTAR":0.000510288,"MEAN_MOTION_DOT":0.00013824,"MEAN_MOTION_DDOT":0},{"OBJECT_NAME":"STARLINK-33608","OBJECT_ID":"2025-065AC","EPOCH":"2026-03-09T12:31:30.859680","MEAN_MOTION":15.2761225,"ECCENTRICITY":4.848e-5,"INCLINATION":42.9988,"RA_OF_ASC_NODE":108.0021,"ARG_OF_PERICENTER":240.5355,"MEAN_ANOMALY":119.5448,"EPHEMERIS_TYPE":0,"CLASSIFICATION_TYPE":"U","NORAD_CAT_ID":63425,"ELEMENT_SET_NO":999,"REV_AT_EPOCH":5281,"BSTAR":0.0011526418,"MEAN_MOTION_DOT":0.00031623,"MEAN_MOTION_DDOT":0}]
